NORAD_CAT_ID,OBJECT_NAME,OBJECT_TYPE,EPOCH,MEAN_MOTION,ECCENTRICITY,INCLINATION,RA_OF_ASC_NODE,ARG_OF_PERICENTER,MEAN_ANOMALY,BSTAR,MEAN_MOTION_DOT,MEAN_MOTION_DDOT,TLE_LINE0,TLE_LINE1,TLE_LINE2,SEMIMAJOR_AXIS,PERIOD,APOGEE,PERIGEE,DECAYED
52668.0,STARLINK-4067,PAYLOAD,2023-01-05 03:11:30,15.08860668,0.0002836999999999,53.2181,319.5852,26.0826,334.0309,0.00032991,4.969e-05,0.0,0 STARLINK-4067,1 52668U 22053N   23005.13299445  .00004969  00000-0  32991-3 0  9991,2 52668  53.2181 319.5852 0002837  26.0826 334.0309 15.08860668 35992,6917.816999999999,95.436,541.645,537.72,0.0
52668.0,STARLINK-4067,PAYLOAD,2023-01-05 06:22:16,15.0886345,0.0002846,53.2179,318.9901,26.6598,333.454,0.00047102,7.221e-05,0.0,0 STARLINK-4067,1 52668U 22053N   23005.26547394  .00007221  00000-0  47102-3 0  9998,2 52668  53.2179 318.9901 0002846  26.6598 333.4540 15.08863450 36015,6917.809,95.436,541.643,537.705,0.0
52668.0,STARLINK-4067,PAYLOAD,2023-01-05 14:19:12,15.0887214,0.0002793999999999,53.2179,317.503,26.8508,333.2628,0.00065034,0.00010086,0.0,0 STARLINK-4067,1 52668U 22053N   23005.59666807  .00010086  00000-0  65034-3 0  9992,2 52668  53.2179 317.5030 0002794  26.8508 333.2628 15.08872140 36064,6917.781999999997,95.436,541.58,537.714,0.0
52668.0,STARLINK-4067,PAYLOAD,2023-01-06 06:13:03,15.08844339,0.0002757,53.2181,314.53,21.4968,338.6139,-0.00026824,-4.556e-05,0.0,0 STARLINK-4067,1 52668U 22053N   23006.25906866 -.00004556  00000-0 -26824-3 0  9999,2 52668  53.2181 314.5300 0002757  21.4968 338.6139 15.08844339 36160,6917.866999999998,95.437,541.639,537.825,0.0
52668.0,STARLINK-4067,PAYLOAD,2023-01-06 20:31:32,15.08819561,0.0002937,53.2182,311.8535,28.4172,331.6980000000001,1.0943e-05,-1.15e-06,0.0,0 STARLINK-4067,1 52668U 22053N   23006.85524056 -.00000115  00000-0  10943-4 0  9994,2 52668  53.2182 311.8535 0002937  28.4172 331.6980 15.08819561 36251,6917.943,95.439,541.84,537.776,0.0
52668.0,STARLINK-4067,PAYLOAD,2023-01-07 02:53:05,15.08830262,0.0002951,53.2172,310.6649,23.6671,336.4457,0.0008112999999999,0.00012644,0.0,0 STARLINK-4067,1 52668U 22053N   23007.12020348  .00012644  00000-0  81130-3 0  9994,2 52668  53.2172 310.6649 0002951  23.6671 336.4457 15.08830262 36297,6917.91,95.438,541.817,537.734,0.0
52668.0,STARLINK-4067,PAYLOAD,2023-01-07 06:03:51,15.08836627,0.0002935,53.2171,310.0705,24.2707,335.8423,0.0011544,0.00018131,0.0,0 STARLINK-4067,1 52668U 22053N   23007.25268461  .00018131  00000-0  11544-2 0  9996,2 52668  53.2171 310.0705 0002935  24.2707 335.8423 15.08836627 36312,6917.891,95.438,541.786,537.725,0.0
52668.0,STARLINK-4067,PAYLOAD,2023-01-08 02:43:53,15.08842257,0.0003104,53.2176,306.2037,30.6584,329.4589,0.00086892,0.00013569,0.0,0 STARLINK-4067,1 52668U 22053N   23008.11381248  .00013569  00000-0  86892-3 0  9990,2 52668  53.2176 306.2037 0003104  30.6584 329.4589 15.08842257 36447,6917.873000000001,95.437,541.886,537.591,0.0
52668.0,STARLINK-4067,PAYLOAD,2023-01-08 04:19:16,15.08838278,0.000292,53.2176,305.9073,18.298,341.8116,0.00063218,9.787e-05,0.0,0 STARLINK-4067,1 52668U 22053N   23008.18005265  .00009787  00000-0  63218-3 0  9993,2 52668  53.2176 305.9073 0002920  18.2980 341.8116 15.08838278 36453,6917.886,95.438,541.771,537.731,0.0
52668.0,STARLINK-4067,PAYLOAD,2023-01-08 20:13:07,15.08850735,0.0002932,53.2174,302.9341,20.456,339.6549,0.0007405,0.0001152,0.0,0 STARLINK-4067,1 52668U 22053N   23008.84245149  .00011520  00000-0  74050-3 0  9997,2 52668  53.2174 302.9341 0002932  20.4560 339.6549 15.08850735 36556,6917.848000000001,95.437,541.741,537.684,0.0
52668.0,STARLINK-4067,PAYLOAD,2023-01-09 12:06:58,15.08849654,0.0002822,53.2179,299.9618,20.4999,339.6106,0.00032945,4.96e-05,0.0,0 STARLINK-4067,1 52668U 22053N   23009.50484893  .00004960  00000-0  32945-3 0  9999,2 52668  53.2179 299.9618 0002822  20.4999 339.6106 15.08849654 36655,6917.851,95.437,541.668,537.764,0.0
52668.0,STARLINK-4067,PAYLOAD,2023-01-10 11:57:45,15.08844706,0.000287,53.2172,295.5018,22.7713,337.3406,4.7823e-05,4.73e-06,0.0,0 STARLINK-4067,1 52668U 22053N   23010.49844611  .00000473  00000-0  47823-4 0  9994,2 52668  53.2172 295.5018 0002870  22.7713 337.3406 15.08844706 36804,6917.866,95.437,541.716,537.746,0.0
52668.0,STARLINK-4067,PAYLOAD,2023-01-10 18:19:18,15.08841344,0.0002931,53.2166,294.3126,24.8136,335.2996,1.7755000000000004e-06,-2.6e-06,0.0,0 STARLINK-4067,1 52668U 22053N   23010.76340761 -.00000260  00000-0  17755-5 0  9998,2 52668  53.2166 294.3126 0002931  24.8136 335.2996 15.08841344 36844,6917.876,95.437,541.769,537.714,0.0
52668.0,STARLINK-4067,PAYLOAD,2023-01-11 02:16:13,15.08850472,0.0002923,53.218,292.8275,27.179,332.9355,0.00016668,2.366e-05,0.0,0 STARLINK-4067,1 52668U 22053N   23011.09460392  .00002366  00000-0  16668-3 0  9996,2 52668  53.2180 292.8275 0002923  27.1790 332.9355 15.08850472 36891,6917.848000000001,95.437,541.735,537.691,0.0
52668.0,STARLINK-4067,PAYLOAD,2023-01-11 18:10:05,15.08847741,0.0003046,53.2158,289.8525,27.6404,332.475,0.00010614,1.401e-05,0.0,0 STARLINK-4067,1 52668U 22053N   23011.75700344  .00001401  00000-0  10614-3 0  9997,2 52668  53.2158 289.8525 0003046  27.6404 332.4750 15.08847741 36994,6917.857,95.437,541.8290000000002,537.615,0.0
52668.0,STARLINK-4067,PAYLOAD,2023-01-12 03:42:23,15.08859626,0.0003001,53.2156,288.067,32.2234,327.8941,0.00033417,5.037e-05,0.0,0 STARLINK-4067,1 52668U 22053N   23012.15443581  .00005037  00000-0  33417-3 0  9994,2 52668  53.2156 288.0670 0003001  32.2234 327.8941 15.08859626 37051,6917.82,95.436,541.761,537.609,0.0
52668.0,STARLINK-4067,PAYLOAD,2023-01-12 11:39:19,15.08832698,0.0002767,53.2171,286.5828,27.9536,332.1604,-8.9362e-05,-1.7100000000000002e-05,0.0,0 STARLINK-4067,1 52668U 22053N   23012.48564745 -.00001710  00000-0 -89362-4 0  9993,2 52668  53.2171 286.5828 0002767  27.9536 332.1604 15.08832698 37101,6917.903,95.438,541.682,537.854,0.0
52668.0,STARLINK-4067,PAYLOAD,2023-01-12 22:47:03,15.08817006,0.0002837,53.2162,284.5005,36.7362,323.3824,-0.00025606,-4.359e-05,0.0,0 STARLINK-4067,1 52668U 22053N   23012.94934202 -.00004359  00000-0 -25606-3 0  9995,2 52668  53.2162 284.5005 0002837  36.7362 323.3824 15.08817006 37178,6917.951,95.439,541.778,537.8530000000002,0.0
52668.0,STARLINK-4067,PAYLOAD,2023-01-13 00:22:25,15.08822804,0.0002409,53.2164,284.1992,42.7654,317.3525,-0.00026748,-4.541e-05,0.0,0 STARLINK-4067,1 52668U 22053N   23013.01557791 -.00004541  00000-0 -26748-3 0  9999,2 52668  53.2164 284.1992 0002409  42.7654 317.3525 15.08822804 37181,6917.933000000001,95.439,541.464,538.131,0.0
52668.0,STARLINK-4067,PAYLOAD,2023-01-13 11:30:08,15.08827038,0.0002563,53.2175,282.1176,47.9555,312.1655,-8.6478e-06,-4.26e-06,0.0,0 STARLINK-4067,1 52668U 22053N   23013.47926026 -.00000426  00000-0 -86478-5 0  9996,2 52668  53.2175 282.1176 0002563  47.9555 312.1655 15.08827038 37252,6917.92,95.438,541.558,538.012,0.0
52668.0,STARLINK-4067,PAYLOAD,2023-01-14 03:23:59,15.08853992,0.0002493,53.215,279.145,49.1597,310.9611,0.001197,0.00018821,0.0,0 STARLINK-4067,1 52668U 22053N   23014.14166120  .00018821  00000-0  11970-2 0  9990,2 52668  53.2150 279.1450 0002493  49.1597 310.9611 15.08853992 37355,6917.838000000001,95.437,541.427,537.9780000000001,0.0
52668.0,STARLINK-4067,PAYLOAD,2023-01-14 17:42:27,15.08852605,0.0002049,53.2154,276.4693,47.444,312.6725,0.00054582,8.412e-05,0.0,0 STARLINK-4067,1 52668U 22053N   23014.73781954  .00008412  00000-0  54582-3 0  9995,2 52668  53.2154 276.4693 0002049  47.4440 312.6725 15.08852605 37448,6917.842,95.437,541.124,538.289,0.0
52668.0,STARLINK-4067,PAYLOAD,2023-01-15 09:36:19,15.08843292,0.000287,53.2136,273.494,63.4565,296.6721,0.0009774,0.00015303,0.0,0 STARLINK-4067,1 52668U 22053N   23015.40022142  .00015303  00000-0  97740-3 0  9997,2 52668  53.2136 273.4940 0002870  63.4565 296.6721 15.08843292 37548,6917.87,95.437,541.721,537.75,0.0
52668.0,STARLINK-4067,PAYLOAD,2023-01-15 22:19:23,15.08854908,0.0001893,53.2149,271.1175,69.47800000000001,290.6415,0.0017399,0.00027523,0.0,0 STARLINK-4067,1 52668U 22053N   23015.93013835  .00027523  00000-0  17399-2 0  9992,2 52668  53.2149 271.1175 0001893  69.4780 290.6415 15.08854908 37625,6917.835,95.437,541.009,538.39,0.0
52668.0,STARLINK-4067,PAYLOAD,2023-01-16 09:27:05,15.08853818,0.0001976,53.2142,269.0345,56.4336,303.6844,0.0012904,0.00020316,0.0,0 STARLINK-4067,1 52668U 22053N   23016.39381917  .00020316  00000-0  12904-2 0  9992,2 52668  53.2142 269.0345 0001976  56.4336 303.6844 15.08853818 37695,6917.838000000001,95.437,541.07,538.336,0.0
52668.0,STARLINK-4067,PAYLOAD,2023-01-16 17:24:02,15.08821244,0.0001714,53.2143,267.5483,78.1344,281.98400000000004,0.00037558,5.691e-05,0.0,0 STARLINK-4067,1 52668U 22053N   23016.72502572  .00005691  00000-0  37558-3 0  9993,2 52668  53.2143 267.5483 0001714  78.1344 281.9840 15.08821244 37740,6917.938,95.439,540.988,538.617,0.0
52668.0,STARLINK-4067,PAYLOAD,2023-01-17 01:20:58,15.08830719,0.0001666999999999,53.2143,266.0613,79.3949,280.7231,0.0019663,0.00031136,0.0,0 STARLINK-4067,1 52668U 22053N   23017.05622959  .00031136  00000-0  19663-2 0  9991,2 52668  53.2143 266.0613 0001667  79.3949 280.7231 15.08830719 37793,6917.909000000001,95.438,540.927,538.621,0.0
52668.0,STARLINK-4067,PAYLOAD,2023-01-18 02:47:08,15.08849881,0.0001598,53.2134,261.3037,83.2922,276.8252,0.00097121,0.00015207,0.0,0 STARLINK-4067,1 52668U 22053N   23018.11607368  .00015207  00000-0  97121-3 0  9993,2 52668  53.2134 261.3037 0001598  83.2922 276.8252 15.08849881 37956,6917.85,95.437,540.821,538.61,0.0
52668.0,STARLINK-4067,PAYLOAD,2023-01-18 09:08:41,15.08850975,0.0001636,53.2137,260.1139,82.7507,277.3671,0.00087095,0.00013604,0.0,0 STARLINK-4067,1 52668U 22053N   23018.38103361  .00013604  00000-0  87095-3 0  9994,2 52668  53.2137 260.1139 0001636  82.7507 277.3671 15.08850975 37996,6917.847,95.437,540.844,538.58,0.0
